STARLINK-3072
1 29153C 21082Z   21325.18959845 -.00035012  00000-0 -29309-3 0  3259
2 29153  69.9992 295.5284 0003600 285.8043 145.5740 15.69799195    10
